{
  "type": "FeatureCollection",
  "features": [
    {
      "type": "Feature",
      "properties": {
        "norad_id": 38212,
        "name": "COSMOS 2251 DEB",
        "group": "cosmos-2251-debris",
        "lat": -31.993997948171966,
        "lon": 38.56176197277962,
        "alt_km": 695.0285536860083,
        "timestamp": "2025-12-26T21:25:53.407572+00:00",
        "meta_object_name": "COSMOS 2251 DEB",
        "meta_object_id": "1993-036BTC",
        "meta_epoch": "2025-12-19T04:21:29.490912",
        "meta_mean_motion": 14.77722254,
        "meta_eccentricity": 0.0092064,
        "meta_inclination": 74.0528,
        "meta_ra_of_asc_node": 63.9673,
        "meta_arg_of_pericenter": 129.0689,
        "meta_mean_anomaly": 231.8724,
        "meta_ephemeris_type": 0,
        "meta_classification_type": "U",
        "meta_norad_cat_id": 38212,
        "meta_element_set_no": 999,
        "meta_rev_at_epoch": 81405,
        "meta_bstar": 0.00027193732,
        "meta_mean_motion_dot": 2.056e-05,
        "meta_mean_motion_ddot": 0,
        "tle_line1": "1 38212U 93036BTC 25353.18159133  .00002056  00000+0  27194-3 0  9994",
        "tle_line2": "2 38212  74.0528  63.9673 0092064 129.0689 231.8724 14.77722254814050"
      },
      "geometry": {
        "type": "Point",
        "coordinates": [
          38.56176197277962,
          -31.993997948171966
        ]
      }
    },
    {
      "type": "Feature",
      "properties": {
        "norad_id": 38220,
        "name": "COSMOS 2251 DEB",
        "group": "cosmos-2251-debris",
        "lat": -9.889016197566258,
        "lon": -137.34523708438635,
        "alt_km": 594.4158795602234,
        "timestamp": "2025-12-26T21:25:53.407582+00:00",
        "meta_object_name": "COSMOS 2251 DEB",
        "meta_object_id": "1993-036BTL",
        "meta_epoch": "2025-12-25T02:47:20.409216",
        "meta_mean_motion": 14.93616578,
        "meta_eccentricity": 0.00060459,
        "meta_inclination": 74.0136,
        "meta_ra_of_asc_node": 43.3689,
        "meta_arg_of_pericenter": 13.8896,
        "meta_mean_anomaly": 346.2452,
        "meta_ephemeris_type": 0,
        "meta_classification_type": "U",
        "meta_norad_cat_id": 38220,
        "meta_element_set_no": 999,
        "meta_rev_at_epoch": 71555,
        "meta_bstar": 0.0029073609,
        "meta_mean_motion_dot": 0.00030813,
        "meta_mean_motion_ddot": 0,
        "tle_line1": "1 38220U 93036BTL 25359.11620844  .00030813  00000+0  29074-2 0  9994",
        "tle_line2": "2 38220  74.0136  43.3689 0006045  13.8896 346.2452 14.93616578715550"
      },
      "geometry": {
        "type": "Point",
        "coordinates": [
          -137.34523708438635,
          -9.889016197566258
        ]
      }
    },
    {
      "type": "Feature",
      "properties": {
        "norad_id": 38479,
        "name": "COSMOS 2251 DEB",
        "group": "cosmos-2251-debris",
        "lat": 40.867622571432186,
        "lon": 172.51950012916956,
        "alt_km": 804.8402046081419,
        "timestamp": "2025-12-26T21:25:53.407592+00:00",
        "meta_object_name": "COSMOS 2251 DEB",
        "meta_object_id": "1993-036BTP",
        "meta_epoch": "2025-12-23T05:36:33.154848",
        "meta_mean_motion": 14.38410381,
        "meta_eccentricity": 0.00839559,
        "meta_inclination": 74.0057,
        "meta_ra_of_asc_node": 164.9051,
        "meta_arg_of_pericenter": 271.8436,
        "meta_mean_anomaly": 269.121,
        "meta_ephemeris_type": 0,
        "meta_classification_type": "U",
        "meta_norad_cat_id": 38479,
        "meta_element_set_no": 999,
        "meta_rev_at_epoch": 64838,
        "meta_bstar": 0.0020977765,
        "meta_mean_motion_dot": 6.644e-05,
        "meta_mean_motion_ddot": 0,
        "tle_line1": "1 38479U 93036BTP 25357.23371707  .00006644  00000+0  20978-2 0  9991",
        "tle_line2": "2 38479  74.0057 164.9051 0083955 271.8436 269.1210 14.38410381648386"
      },
      "geometry": {
        "type": "Point",
        "coordinates": [
          172.51950012916956,
          40.867622571432186
        ]
      }
    },
    {
      "type": "Feature",
      "properties": {
        "norad_id": 38481,
        "name": "COSMOS 2251 DEB",
        "group": "cosmos-2251-debris",
        "lat": -64.70275267914418,
        "lon": -159.33362277480583,
        "alt_km": 769.9304254861163,
        "timestamp": "2025-12-26T21:25:53.407603+00:00",
        "meta_object_name": "COSMOS 2251 DEB",
        "meta_object_id": "1993-036BTR",
        "meta_epoch": "2025-12-24T16:34:49.611936",
        "meta_mean_motion": 13.9488699,
        "meta_eccentricity": 0.02349003,
        "meta_inclination": 73.9328,
        "meta_ra_of_asc_node": 346.8989,
        "meta_arg_of_pericenter": 284.9937,
        "meta_mean_anomaly": 72.5302,
        "meta_ephemeris_type": 0,
        "meta_classification_type": "U",
        "meta_norad_cat_id": 38481,
        "meta_element_set_no": 999,
        "meta_rev_at_epoch": 59227,
        "meta_bstar": 0.0016488432,
        "meta_mean_motion_dot": 2.762e-05,
        "meta_mean_motion_ddot": 0,
        "tle_line1": "1 38481U 93036BTR 25358.69085199  .00002762  00000+0  16488-2 0  9990",
        "tle_line2": "2 38481  73.9328 346.8989 0234900 284.9937  72.5302 13.94886990592276"
      },
      "geometry": {
        "type": "Point",
        "coordinates": [
          -159.33362277480583,
          -64.70275267914418
        ]
      }
    },
    {
      "type": "Feature",
      "properties": {
        "norad_id": 38483,
        "name": "COSMOS 2251 DEB",
        "group": "cosmos-2251-debris",
        "lat": -69.91769909171168,
        "lon": -64.04711585868404,
        "alt_km": 879.0428242642665,
        "timestamp": "2025-12-26T21:25:53.407613+00:00",
        "meta_object_name": "COSMOS 2251 DEB",
        "meta_object_id": "1993-036BTT",
        "meta_epoch": "2025-12-12T08:16:48.530496",
        "meta_mean_motion": 14.28787654,
        "meta_eccentricity": 0.01107994,
        "meta_inclination": 74.262,
        "meta_ra_of_asc_node": 12.4521,
        "meta_arg_of_pericenter": 118.0167,
        "meta_mean_anomaly": 243.2246,
        "meta_ephemeris_type": 0,
        "meta_classification_type": "U",
        "meta_norad_cat_id": 38483,
        "meta_element_set_no": 999,
        "meta_rev_at_epoch": 63472,
        "meta_bstar": 0.0012977102,
        "meta_mean_motion_dot": 3.471e-05,
        "meta_mean_motion_ddot": 0,
        "tle_line1": "1 38483U 93036BTT 25346.34500614  .00003471  00000+0  12977-2 0  9992",
        "tle_line2": "2 38483  74.2620  12.4521 0110799 118.0167 243.2246 14.28787654634722"
      },
      "geometry": {
        "type": "Point",
        "coordinates": [
          -64.04711585868404,
          -69.91769909171168
        ]
      }
    },
    {
      "type": "Feature",
      "properties": {
        "norad_id": 38486,
        "name": "COSMOS 2251 DEB",
        "group": "cosmos-2251-debris",
        "lat": 14.213837598844318,
        "lon": -178.7077019278036,
        "alt_km": 637.8066418525968,
        "timestamp": "2025-12-26T21:25:53.407623+00:00",
        "meta_object_name": "COSMOS 2251 DEB",
        "meta_object_id": "1993-036BTW",
        "meta_epoch": "2025-12-26T05:52:28.851168",
        "meta_mean_motion": 14.73607575,
        "meta_eccentricity": 0.00308492,
        "meta_inclination": 73.9406,
        "meta_ra_of_asc_node": 178.3788,
        "meta_arg_of_pericenter": 320.8667,
        "meta_mean_anomaly": 216.4597,
        "meta_ephemeris_type": 0,
        "meta_classification_type": "U",
        "meta_norad_cat_id": 38486,
        "meta_element_set_no": 999,
        "meta_rev_at_epoch": 75633,
        "meta_bstar": 0.0022062553,
        "meta_mean_motion_dot": 0.00014479,
        "meta_mean_motion_ddot": 0,
        "tle_line1": "1 38486U 93036BTW 25360.24477837  .00014479  00000+0  22063-2 0  9997",
        "tle_line2": "2 38486  73.9406 178.3788 0030849 320.8667 216.4597 14.73607575756331"
      },
      "geometry": {
        "type": "Point",
        "coordinates": [
          -178.7077019278036,
          14.213837598844318
        ]
      }
    },
    {
      "type": "Feature",
      "properties": {
        "norad_id": 38487,
        "name": "COSMOS 2251 DEB",
        "group": "cosmos-2251-debris",
        "lat": -65.99189700713056,
        "lon": -135.66255854227447,
        "alt_km": 514.8663188265127,
        "timestamp": "2025-12-26T21:25:53.407633+00:00",
        "meta_object_name": "COSMOS 2251 DEB",
        "meta_object_id": "1993-036BTX",
        "meta_epoch": "2025-12-21T18:32:44.643552",
        "meta_mean_motion": 15.1793295,
        "meta_eccentricity": 0.00206459,
        "meta_inclination": 73.9735,
        "meta_ra_of_asc_node": 14.8819,
        "meta_arg_of_pericenter": 185.3276,
        "meta_mean_anomaly": 174.7704,
        "meta_ephemeris_type": 0,
        "meta_classification_type": "U",
        "meta_norad_cat_id": 38487,
        "meta_element_set_no": 999,
        "meta_rev_at_epoch": 66937,
        "meta_bstar": 0.0019265154,
        "meta_mean_motion_dot": 0.00039496,
        "meta_mean_motion_ddot": 0,
        "tle_line1": "1 38487U 93036BTX 25355.77273893  .00039496  00000+0  19265-2 0  9992",
        "tle_line2": "2 38487  73.9735  14.8819 0020645 185.3276 174.7704 15.17932950669379"
      },
      "geometry": {
        "type": "Point",
        "coordinates": [
          -135.66255854227447,
          -65.99189700713056
        ]
      }
    }
  ]
}